{"type": "FeatureCollection", "features": [{"type": "Feature", "properties": {"norad_id": 32275, "name": "COSMOS 2433 (720)", "group": "glo-ops", "lat": 34.60574576795867, "lon": 123.78939928953146, "alt_km": 19131.16399355376, "timestamp": "2025-12-19T08:58:49.599236+00:00", "meta": {"OBJECT_NAME": "COSMOS 2433 (720)", "OBJECT_ID": "2007-052A", "EPOCH": "2025-12-18T06:01:45.286176", "MEAN_MOTION": 2.13104131, "ECCENTRICITY": 0.00053253, "INCLINATION": 65.6801, "RA_OF_ASC_NODE": 322.0201, "ARG_OF_PERICENTER": 254.759, "MEAN_ANOMALY": 105.1749, "EPHEMERIS_TYPE": 0, "CLASSIFICATION_TYPE": "U", "NORAD_CAT_ID": 32275, "ELEMENT_SET_NO": 999, "REV_AT_EPOCH": 14120, "BSTAR": 0, "MEAN_MOTION_DOT": -6.3e-07, "MEAN_MOTION_DDOT": 0}, "tle": {"line1": "1 32275U 07052A   25352.25121859 -.00000063  00000+0  00000+0 0  9991", "line2": "2 32275  65.6801 322.0201 0005325 254.7590 105.1749  2.13104131141205"}}, "geometry": {"type": "Point", "coordinates": [123.78939928953146, 34.60574576795867]}}, {"type": "Feature", "properties": {"norad_id": 32276, "name": "COSMOS 2432 (719)", "group": "glo-ops", "lat": 65.38305813065001, "lon": 42.48862130714307, "alt_km": 19142.51275626335, "timestamp": "2025-12-19T08:58:49.599259+00:00", "meta": {"OBJECT_NAME": "COSMOS 2432 (719)", "OBJECT_ID": "2007-052B", "EPOCH": "2025-12-18T13:03:56.692224", "MEAN_MOTION": 2.13103303, "ECCENTRICITY": 0.00113252, "INCLINATION": 65.6958, "RA_OF_ASC_NODE": 322.1345, "ARG_OF_PERICENTER": 313.2452, "MEAN_ANOMALY": 216.061, "EPHEMERIS_TYPE": 0, "CLASSIFICATION_TYPE": "U", "NORAD_CAT_ID": 32276, "ELEMENT_SET_NO": 999, "REV_AT_EPOCH": 14123, "BSTAR": 0, "MEAN_MOTION_DOT": -6.2e-07, "MEAN_MOTION_DDOT": 0}, "tle": {"line1": "1 32276U 07052B   25352.54440616 -.00000062  00000+0  00000+0 0  9998", "line2": "2 32276  65.6958 322.1345 0011325 313.2452 216.0610  2.13103303141236"}}, "geometry": {"type": "Point", "coordinates": [42.48862130714307, 65.38305813065001]}}, {"type": "Feature", "properties": {"norad_id": 32393, "name": "COSMOS 2434 (721)", "group": "glo-ops", "lat": 28.468290555959737, "lon": -146.88261997720952, "alt_km": 19117.9299207538, "timestamp": "2025-12-19T08:58:49.599276+00:00", "meta": {"OBJECT_NAME": "COSMOS 2434 (721)", "OBJECT_ID": "2007-065A", "EPOCH": "2025-12-18T04:23:29.536800", "MEAN_MOTION": 2.13101428, "ECCENTRICITY": 0.00044399, "INCLINATION": 64.3148, "RA_OF_ASC_NODE": 198.0196, "ARG_OF_PERICENTER": 71.1558, "MEAN_ANOMALY": 127.0412, "EPHEMERIS_TYPE": 0, "CLASSIFICATION_TYPE": "U", "NORAD_CAT_ID": 32393, "ELEMENT_SET_NO": 999, "REV_AT_EPOCH": 13991, "BSTAR": 0, "MEAN_MOTION_DOT": 1.1e-06, "MEAN_MOTION_DDOT": 0}, "tle": {"line1": "1 32393U 07065A   25352.18298075  .00000110  00000+0  00000+0 0  9995", "line2": "2 32393  64.3148 198.0196 0004439  71.1558 127.0412  2.13101428139911"}}, "geometry": {"type": "Point", "coordinates": [-146.88261997720952, 28.468290555959737]}}, {"type": "Feature", "properties": {"norad_id": 32395, "name": "COSMOS 2436 (723)", "group": "glo-ops", "lat": 13.348606836441814, "lon": 11.496584191984084, "alt_km": 19170.1712263556, "timestamp": "2025-12-19T08:58:49.599288+00:00", "meta": {"OBJECT_NAME": "COSMOS 2436 (723)", "OBJECT_ID": "2007-065C", "EPOCH": "2025-12-16T08:11:52.503360", "MEAN_MOTION": 2.13100112, "ECCENTRICITY": 0.00177699, "INCLINATION": 64.3235, "RA_OF_ASC_NODE": 198.1521, "ARG_OF_PERICENTER": 9.2217, "MEAN_ANOMALY": 349.3751, "EPHEMERIS_TYPE": 0, "CLASSIFICATION_TYPE": "U", "NORAD_CAT_ID": 32395, "ELEMENT_SET_NO": 999, "REV_AT_EPOCH": 13982, "BSTAR": 0, "MEAN_MOTION_DOT": 1.1e-06, "MEAN_MOTION_DDOT": 0}, "tle": {"line1": "1 32395U 07065C   25350.34157990  .00000110  00000+0  00000+0 0  9993", "line2": "2 32395  64.3235 198.1521 0017769   9.2217 349.3751  2.13100112139821"}}, "geometry": {"type": "Point", "coordinates": [11.496584191984084, 13.348606836441814]}}, {"type": "Feature", "properties": {"norad_id": 36111, "name": "COSMOS 2456 (730)", "group": "glo-ops", "lat": -8.289602391504648, "lon": -98.96885825621439, "alt_km": 19133.943583884524, "timestamp": "2025-12-19T08:58:49.599300+00:00", "meta": {"OBJECT_NAME": "COSMOS 2456 (730)", "OBJECT_ID": "2009-070A", "EPOCH": "2025-12-18T06:55:18.738048", "MEAN_MOTION": 2.13103695, "ECCENTRICITY": 0.00031882, "INCLINATION": 64.9035, "RA_OF_ASC_NODE": 77.1481, "ARG_OF_PERICENTER": 297.6027, "MEAN_ANOMALY": 138.5871, "EPHEMERIS_TYPE": 0, "CLASSIFICATION_TYPE": "U", "NORAD_CAT_ID": 36111, "ELEMENT_SET_NO": 999, "REV_AT_EPOCH": 12457, "BSTAR": 0, "MEAN_MOTION_DOT": -4.1e-07, "MEAN_MOTION_DDOT": 0}, "tle": {"line1": "1 36111U 09070A   25352.28841132 -.00000041  00000+0  00000+0 0  9998", "line2": "2 36111  64.9035  77.1481 0003188 297.6027 138.5871  2.13103695124574"}}, "geometry": {"type": "Point", "coordinates": [-98.96885825621439, -8.289602391504648]}}, {"type": "Feature", "properties": {"norad_id": 36112, "name": "COSMOS 2457 (733)", "group": "glo-ops", "lat": -37.10017622590302, "lon": 56.23519896623657, "alt_km": 19145.607198870257, "timestamp": "2025-12-19T08:58:49.599312+00:00", "meta": {"OBJECT_NAME": "COSMOS 2457 (733)", "OBJECT_ID": "2009-070B", "EPOCH": "2025-12-18T11:41:17.961216", "MEAN_MOTION": 2.13101033, "ECCENTRICITY": 0.00046158, "INCLINATION": 64.8891, "RA_OF_ASC_NODE": 76.9887, "ARG_OF_PERICENTER": 160.5919, "MEAN_ANOMALY": 197.0462, "EPHEMERIS_TYPE": 0, "CLASSIFICATION_TYPE": "U", "NORAD_CAT_ID": 36112, "ELEMENT_SET_NO": 999, "REV_AT_EPOCH": 12457, "BSTAR": 0, "MEAN_MOTION_DOT": -3.9e-07, "MEAN_MOTION_DDOT": 0}, "tle": {"line1": "1 36112U 09070B   25352.48701344 -.00000039  00000+0  00000+0 0  9998", "line2": "2 36112  64.8891  76.9887 0004615 160.5919 197.0462  2.13101033124575"}}, "geometry": {"type": "Point", "coordinates": [56.23519896623657, -37.10017622590302]}}, {"type": "Feature", "properties": {"norad_id": 36402, "name": "COSMOS 2460 (732)", "group": "glo-ops", "lat": -37.63381708264777, "lon": -60.02040435454825, "alt_km": 19129.306948310987, "timestamp": "2025-12-19T08:58:49.599323+00:00", "meta": {"OBJECT_NAME": "COSMOS 2460 (732)", "OBJECT_ID": "2010-007C", "EPOCH": "2025-12-18T23:03:28.519200", "MEAN_MOTION": 2.13106274, "ECCENTRICITY": 0.00025695, "INCLINATION": 65.526, "RA_OF_ASC_NODE": 320.5627, "ARG_OF_PERICENTER": 278.231, "MEAN_ANOMALY": 82.4152, "EPHEMERIS_TYPE": 0, "CLASSIFICATION_TYPE": "U", "NORAD_CAT_ID": 36402, "ELEMENT_SET_NO": 999, "REV_AT_EPOCH": 12289, "BSTAR": 0, "MEAN_MOTION_DOT": -6e-07, "MEAN_MOTION_DDOT": 0}, "tle": {"line1": "1 36402U 10007C   25352.96074675 -.00000060  00000+0  00000+0 0  9999", "line2": "2 36402  65.5260 320.5627 0002569 278.2310  82.4152  2.13106274122891"}}, "geometry": {"type": "Point", "coordinates": [-60.02040435454825, -37.63381708264777]}}, {"type": "Feature", "properties": {"norad_id": 37867, "name": "COSMOS 2476 (744)", "group": "glo-ops", "lat": 64.19956932316614, "lon": -174.01822746562138, "alt_km": 19168.306707782493, "timestamp": "2025-12-19T08:58:49.599334+00:00", "meta": {"OBJECT_NAME": "COSMOS 2476 (744)", "OBJECT_ID": "2011-064A", "EPOCH": "2025-12-18T07:35:13.446240", "MEAN_MOTION": 2.13103876, "ECCENTRICITY": 0.00242895, "INCLINATION": 65.1659, "RA_OF_ASC_NODE": 78.9826, "ARG_OF_PERICENTER": 234.6288, "MEAN_ANOMALY": 131.1641, "EPHEMERIS_TYPE": 0, "CLASSIFICATION_TYPE": "U", "NORAD_CAT_ID": 37867, "ELEMENT_SET_NO": 999, "REV_AT_EPOCH": 10991, "BSTAR": 0, "MEAN_MOTION_DOT": -4e-07, "MEAN_MOTION_DDOT": 0}, "tle": {"line1": "1 37867U 11064A   25352.31612785 -.00000040  00000+0  00000+0 0  9996", "line2": "2 37867  65.1659  78.9826 0024289 234.6288 131.1641  2.13103876109911"}}, "geometry": {"type": "Point", "coordinates": [-174.01822746562138, 64.19956932316614]}}, {"type": "Feature", "properties": {"norad_id": 37868, "name": "COSMOS 2477 (745)", "group": "glo-ops", "lat": -63.84538541972029, "lon": 8.81229537558504, "alt_km": 19097.255936717786, "timestamp": "2025-12-19T08:58:49.599346+00:00", "meta": {"OBJECT_NAME": "COSMOS 2477 (745)", "OBJECT_ID": "2011-064B", "EPOCH": "2025-12-18T12:02:16.818720", "MEAN_MOTION": 2.13102921, "ECCENTRICITY": 0.00212144, "INCLINATION": 65.1723, "RA_OF_ASC_NODE": 79.0538, "ARG_OF_PERICENTER": 234.8854, "MEAN_ANOMALY": 94.0943, "EPHEMERIS_TYPE": 0, "CLASSIFICATION_TYPE": "U", "NORAD_CAT_ID": 37868, "ELEMENT_SET_NO": 999, "REV_AT_EPOCH": 10990, "BSTAR": 0, "MEAN_MOTION_DOT": -3.8e-07, "MEAN_MOTION_DDOT": 0}, "tle": {"line1": "1 37868U 11064B   25352.50158355 -.00000038  00000+0  00000+0 0  9993", "line2": "2 37868  65.1723  79.0538 0021214 234.8854  94.0943  2.13102921109903"}}, "geometry": {"type": "Point", "coordinates": [8.81229537558504, -63.84538541972029]}}, {"type": "Feature", "properties": {"norad_id": 37869, "name": "COSMOS 2475 (743)", "group": "glo-ops", "lat": -47.472117266118445, "lon": -70.70217296728696, "alt_km": 19070.24900066027, "timestamp": "2025-12-19T08:58:49.599357+00:00", "meta": {"OBJECT_NAME": "COSMOS 2475 (743)", "OBJECT_ID": "2011-064C", "EPOCH": "2025-12-18T05:19:14.657088", "MEAN_MOTION": 2.13101609, "ECCENTRICITY": 0.0026433, "INCLINATION": 65.1789, "RA_OF_ASC_NODE": 79.0834, "ARG_OF_PERICENTER": 248.8457, "MEAN_ANOMALY": 181.3342, "EPHEMERIS_TYPE": 0, "CLASSIFICATION_TYPE": "U", "NORAD_CAT_ID": 37869, "ELEMENT_SET_NO": 999, "REV_AT_EPOCH": 10991, "BSTAR": 0, "MEAN_MOTION_DOT": -4.1e-07, "MEAN_MOTION_DDOT": 0}, "tle": {"line1": "1 37869U 11064C   25352.22169742 -.00000041  00000+0  00000+0 0  9999", "line2": "2 37869  65.1789  79.0834 0026433 248.8457 181.3342  2.13101609109913"}}, "geometry": {"type": "Point", "coordinates": [-70.70217296728696, -47.472117266118445]}}]}